STARLINK-6375           
1 57342U 23099Q   25342.17255279  .00000047  00000+0  18557-4 0  9998
2 57342  43.0053  25.9400 0001237 265.0081  95.0620 15.02535409132353
STARLINK-6379           
1 57343U 23099R   25342.19141495 -.00001959  00000+0 -12998-3 0  9992
2 57343  43.0054  26.0818 0001240 270.2622  89.8078 15.02541561132357
STARLINK-6380           
1 57344U 23099S   25342.18254198  .00001542  00000+0  12924-3 0  9992
2 57344  43.0054  26.0126 0001301 260.8591  99.2105 15.02532586132351
STARLINK-6373           
1 57345U 23099T   25342.18587209  .00001421  00000+0  12022-3 0  9990
2 57345  43.0040  26.0400 0001296 272.3155  87.7539 15.02535683132353
STARLINK-6359           
1 57346U 23099U   25342.09941424 -.00000687  00000+0 -35827-4 0  9998
2 57346  43.0034  26.2465 0000938 252.5401 107.5339 15.02539599132344
STARLINK-6378           
1 57347U 23099V   25342.17809594 -.00001530  00000+0 -98197-4 0  9996
2 57347  43.0042  25.9814 0001259 270.8670  89.2028 15.02540181132357
STARLINK-6372           
1 57348U 23099W   25342.16034563  .00001230  00000+0  10615-3 0  9995
2 57348  43.0049  25.8492 0001245 260.5819  99.4882 15.02532246132356
STARLINK-6376           
1 57349U 23099X   25342.16256111  .00000795  00000+0  73940-4 0  9997
2 57349  43.0050  25.8635 0001407 259.9830 100.0854 15.02533281133071
STARLINK-6362           
1 57350U 23099Y   25342.16848899  .00004609  00000+0  35601-3 0  9998
2 57350  43.0046  13.7436 0001266 262.2852  97.7847 15.02540869132496
STARLINK-6331           
1 57351U 23099Z   25342.15923212  .00000333  00000+0  39758-4 0  9999
2 57351  43.0054  25.8406 0001169 266.0264  94.0445 15.02536298132358
STARLINK-6297           
1 57352U 23099AA  25342.16182965  .00000090  00000+0  21771-4 0  9999
2 57352  43.0048  13.6926 0001086 265.5066  94.5652 15.02523832132496
STARLINK-6324           
1 57353U 23099AB  25342.15701351  .00000804  00000+0  74576-4 0  9999
2 57353  43.0051  25.8234 0001371 273.3141  86.7545 15.02532266132356
STARLINK-6293           
1 57354U 23099AC  25342.08646496  .00000320  00000+0  38776-4 0  9995
2 57354  43.0044  13.9867 0001129 267.3059  92.7654 15.02536250132480
STARLINK-6276           
1 57355U 23099AD  25342.09867743  .00000769  00000+0  71995-4 0  9994
2 57355  43.0052  14.0784 0001319 263.5258  96.5434 15.02531548132483
STARLINK-6355           
1 57356U 23099AE  25342.15183238  .00000278  00000+0  35652-4 0  9997
2 57356  43.0057  13.6151 0001075 281.8276  78.2446 15.02540896132491
STARLINK-5600           
1 57357U 23099AF  25342.15960336  .00002538  00000+0  20290-3 0  9992
2 57357  43.0045  13.6755 0001385 257.5203 102.5484 15.02540570132495
