[{"OBJECT_NAME":"STARLINK-6375","OBJECT_ID":"2023-099Q","EPOCH":"2025-12-08T04:08:28.561056","MEAN_MOTION":15.02535409,"ECCENTRICITY":0.00012378,"INCLINATION":43.0053,"RA_OF_ASC_NODE":25.94,"ARG_OF_PERICENTER":265.0081,"MEAN_ANOMALY":95.062,"EPHEMERIS_TYPE":0,"CLASSIFICATION_TYPE":"U","NORAD_CAT_ID":57342,"ELEMENT_SET_NO":999,"REV_AT_EPOCH":13235,"BSTAR":1.8556672e-5,"MEAN_MOTION_DOT":4.7e-7,"MEAN_MOTION_DDOT":0},{"OBJECT_NAME":"STARLINK-6379","OBJECT_ID":"2023-099R","EPOCH":"2025-12-08T04:35:38.251680","MEAN_MOTION":15.02541561,"ECCENTRICITY":0.00012403,"INCLINATION":43.0054,"RA_OF_ASC_NODE":26.0818,"ARG_OF_PERICENTER":270.2622,"MEAN_ANOMALY":89.8078,"EPHEMERIS_TYPE":0,"CLASSIFICATION_TYPE":"U","NORAD_CAT_ID":57343,"ELEMENT_SET_NO":999,"REV_AT_EPOCH":13235,"BSTAR":-0.00012998396,"MEAN_MOTION_DOT":-1.959e-5,"MEAN_MOTION_DDOT":0},{"OBJECT_NAME":"STARLINK-6380","OBJECT_ID":"2023-099S","EPOCH":"2025-12-08T04:22:51.627072","MEAN_MOTION":15.02532586,"ECCENTRICITY":0.00013017,"INCLINATION":43.0054,"RA_OF_ASC_NODE":26.0126,"ARG_OF_PERICENTER":260.8591,"MEAN_ANOMALY":99.2105,"EPHEMERIS_TYPE":0,"CLASSIFICATION_TYPE":"U","NORAD_CAT_ID":57344,"ELEMENT_SET_NO":999,"REV_AT_EPOCH":13235,"BSTAR":0.00012923698,"MEAN_MOTION_DOT":1.542e-5,"MEAN_MOTION_DDOT":0},{"OBJECT_NAME":"STARLINK-6373","OBJECT_ID":"2023-099T","EPOCH":"2025-12-08T04:27:39.348576","MEAN_MOTION":15.02535683,"ECCENTRICITY":0.00012962,"INCLINATION":43.004,"RA_OF_ASC_NODE":26.04,"ARG_OF_PERICENTER":272.3155,"MEAN_ANOMALY":87.7539,"EPHEMERIS_TYPE":0,"CLASSIFICATION_TYPE":"U","NORAD_CAT_ID":57345,"ELEMENT_SET_NO":999,"REV_AT_EPOCH":13235,"BSTAR":0.00012021767,"MEAN_MOTION_DOT":1.421e-5,"MEAN_MOTION_DDOT":0},{"OBJECT_NAME":"STARLINK-6359","OBJECT_ID":"2023-099U","EPOCH":"2025-12-08T02:23:09.390336","MEAN_MOTION":15.02539599,"ECCENTRICITY":9.386e-5,"INCLINATION":43.0034,"RA_OF_ASC_NODE":26.2465,"ARG_OF_PERICENTER":252.5401,"MEAN_ANOMALY":107.5339,"EPHEMERIS_TYPE":0,"CLASSIFICATION_TYPE":"U","NORAD_CAT_ID":57346,"ELEMENT_SET_NO":999,"REV_AT_EPOCH":13234,"BSTAR":-3.582729e-5,"MEAN_MOTION_DOT":-6.87e-6,"MEAN_MOTION_DDOT":0},{"OBJECT_NAME":"STARLINK-6378","OBJECT_ID":"2023-099V","EPOCH":"2025-12-08T04:16:27.489216","MEAN_MOTION":15.02540181,"ECCENTRICITY":0.00012591,"INCLINATION":43.0042,"RA_OF_ASC_NODE":25.9814,"ARG_OF_PERICENTER":270.867,"MEAN_ANOMALY":89.2028,"EPHEMERIS_TYPE":0,"CLASSIFICATION_TYPE":"U","NORAD_CAT_ID":57347,"ELEMENT_SET_NO":999,"REV_AT_EPOCH":13235,"BSTAR":-9.8196846e-5,"MEAN_MOTION_DOT":-1.53e-5,"MEAN_MOTION_DDOT":0},{"OBJECT_NAME":"STARLINK-6372","OBJECT_ID":"2023-099W","EPOCH":"2025-12-08T03:50:53.862432","MEAN_MOTION":15.02532246,"ECCENTRICITY":0.00012452,"INCLINATION":43.0049,"RA_OF_ASC_NODE":25.8492,"ARG_OF_PERICENTER":260.5819,"MEAN_ANOMALY":99.4882,"EPHEMERIS_TYPE":0,"CLASSIFICATION_TYPE":"U","NORAD_CAT_ID":57348,"ELEMENT_SET_NO":999,"REV_AT_EPOCH":13235,"BSTAR":0.00010614968,"MEAN_MOTION_DOT":1.23e-5,"MEAN_MOTION_DDOT":0},{"OBJECT_NAME":"STARLINK-6376","OBJECT_ID":"2023-099X","EPOCH":"2025-12-08T03:54:05.279904","MEAN_MOTION":15.02533281,"ECCENTRICITY":0.00014073,"INCLINATION":43.005,"RA_OF_ASC_NODE":25.8635,"ARG_OF_PERICENTER":259.983,"MEAN_ANOMALY":100.0854,"EPHEMERIS_TYPE":0,"CLASSIFICATION_TYPE":"U","NORAD_CAT_ID":57349,"ELEMENT_SET_NO":999,"REV_AT_EPOCH":13307,"BSTAR":7.3940038e-5,"MEAN_MOTION_DOT":7.95e-6,"MEAN_MOTION_DDOT":0},{"OBJECT_NAME":"STARLINK-6362","OBJECT_ID":"2023-099Y","EPOCH":"2025-12-08T04:02:37.448736","MEAN_MOTION":15.02540869,"ECCENTRICITY":0.00012661,"INCLINATION":43.0046,"RA_OF_ASC_NODE":13.7436,"ARG_OF_PERICENTER":262.2852,"MEAN_ANOMALY":97.7847,"EPHEMERIS_TYPE":0,"CLASSIFICATION_TYPE":"U","NORAD_CAT_ID":57350,"ELEMENT_SET_NO":999,"REV_AT_EPOCH":13249,"BSTAR":0.00035600862,"MEAN_MOTION_DOT":4.609e-5,"MEAN_MOTION_DDOT":0},{"OBJECT_NAME":"STARLINK-6331","OBJECT_ID":"2023-099Z","EPOCH":"2025-12-08T03:49:17.655168","MEAN_MOTION":15.02536298,"ECCENTRICITY":0.00011693,"INCLINATION":43.0054,"RA_OF_ASC_NODE":25.8406,"ARG_OF_PERICENTER":266.0264,"MEAN_ANOMALY":94.0445,"EPHEMERIS_TYPE":0,"CLASSIFICATION_TYPE":"U","NORAD_CAT_ID":57351,"ELEMENT_SET_NO":999,"REV_AT_EPOCH":13235,"BSTAR":3.9758076e-5,"MEAN_MOTION_DOT":3.33e-6,"MEAN_MOTION_DDOT":0},{"OBJECT_NAME":"STARLINK-6297","OBJECT_ID":"2023-099AA","EPOCH":"2025-12-08T03:53:02.081760","MEAN_MOTION":15.02523832,"ECCENTRICITY":0.00010864,"INCLINATION":43.0048,"RA_OF_ASC_NODE":13.6926,"ARG_OF_PERICENTER":265.5066,"MEAN_ANOMALY":94.5652,"EPHEMERIS_TYPE":0,"CLASSIFICATION_TYPE":"U","NORAD_CAT_ID":57352,"ELEMENT_SET_NO":999,"REV_AT_EPOCH":13249,"BSTAR":2.1770905e-5,"MEAN_MOTION_DOT":9.0e-7,"MEAN_MOTION_DDOT":0},{"OBJECT_NAME":"STARLINK-6324","OBJECT_ID":"2023-099AB","EPOCH":"2025-12-08T03:46:05.967264","MEAN_MOTION":15.02532266,"ECCENTRICITY":0.00013713,"INCLINATION":43.0051,"RA_OF_ASC_NODE":25.8234,"ARG_OF_PERICENTER":273.3141,"MEAN_ANOMALY":86.7545,"EPHEMERIS_TYPE":0,"CLASSIFICATION_TYPE":"U","NORAD_CAT_ID":57353,"ELEMENT_SET_NO":999,"REV_AT_EPOCH":13235,"BSTAR":7.4576437e-5,"MEAN_MOTION_DOT":8.04e-6,"MEAN_MOTION_DDOT":0},{"OBJECT_NAME":"STARLINK-6293","OBJECT_ID":"2023-099AC","EPOCH":"2025-12-08T02:04:30.572544","MEAN_MOTION":15.0253625,"ECCENTRICITY":0.00011296,"INCLINATION":43.0044,"RA_OF_ASC_NODE":13.9867,"ARG_OF_PERICENTER":267.3059,"MEAN_ANOMALY":92.7654,"EPHEMERIS_TYPE":0,"CLASSIFICATION_TYPE":"U","NORAD_CAT_ID":57354,"ELEMENT_SET_NO":999,"REV_AT_EPOCH":13248,"BSTAR":3.877551e-5,"MEAN_MOTION_DOT":3.2e-6,"MEAN_MOTION_DDOT":0},{"OBJECT_NAME":"STARLINK-6276","OBJECT_ID":"2023-099AD","EPOCH":"2025-12-08T02:22:05.729952","MEAN_MOTION":15.02531548,"ECCENTRICITY":0.00013191,"INCLINATION":43.0052,"RA_OF_ASC_NODE":14.0784,"ARG_OF_PERICENTER":263.5258,"MEAN_ANOMALY":96.5434,"EPHEMERIS_TYPE":0,"CLASSIFICATION_TYPE":"U","NORAD_CAT_ID":57355,"ELEMENT_SET_NO":999,"REV_AT_EPOCH":13248,"BSTAR":7.1994576e-5,"MEAN_MOTION_DOT":7.69e-6,"MEAN_MOTION_DDOT":0},{"OBJECT_NAME":"STARLINK-6355","OBJECT_ID":"2023-099AE","EPOCH":"2025-12-08T03:38:38.317632","MEAN_MOTION":15.02540896,"ECCENTRICITY":0.00010751,"INCLINATION":43.0057,"RA_OF_ASC_NODE":13.6151,"ARG_OF_PERICENTER":281.8276,"MEAN_ANOMALY":78.2446,"EPHEMERIS_TYPE":0,"CLASSIFICATION_TYPE":"U","NORAD_CAT_ID":57356,"ELEMENT_SET_NO":999,"REV_AT_EPOCH":13249,"BSTAR":3.5651776e-5,"MEAN_MOTION_DOT":2.78e-6,"MEAN_MOTION_DDOT":0},{"OBJECT_NAME":"STARLINK-5600","OBJECT_ID":"2023-099AF","EPOCH":"2025-12-08T03:49:49.730304","MEAN_MOTION":15.0254057,"ECCENTRICITY":0.00013858,"INCLINATION":43.0045,"RA_OF_ASC_NODE":13.6755,"ARG_OF_PERICENTER":257.5203,"MEAN_ANOMALY":102.5484,"EPHEMERIS_TYPE":0,"CLASSIFICATION_TYPE":"U","NORAD_CAT_ID":57357,"ELEMENT_SET_NO":999,"REV_AT_EPOCH":13249,"BSTAR":0.00020289982,"MEAN_MOTION_DOT":2.538e-5,"MEAN_MOTION_DDOT":0}]
